HST                     
1 20580U 90037B   26170.81622720  .00005300  00000+0  16558-3 0  9993
2 20580  28.4721  62.6068 0001666 170.6657 189.3970 15.30772013788975
POLAR                   
1 23802U 96013A   26170.34772246  .00000090  00000+0  00000+0 0  9992
2 23802  79.8568 227.0270 6472584 209.0042  89.9942  1.29846125144887
SWAS                    
1 25560U 98071A   26170.46732187  .00002223  00000+0  14431-3 0  9991
2 25560  69.8943 221.6391 0008668 257.5657 102.4537 15.09635946497615
CXO                     
1 25867U 99040B   26172.02247085  .00000453  00000+0  00000+0 0  9996
2 25867  56.2474 116.4966 7828329 310.2765   0.2930  0.37807394 17333
XMM-NEWTON              
1 25989U 99066A   26171.34141683 -.00000033  00000+0  00000+0 0  9995
2 25989  64.4680 282.9447 4672330  64.8598   0.1279  0.50127883 23013
TERRA                   
1 25994U 99068A   26170.83479081  .00000280  00000+0  65954-4 0  9999
2 25994  97.9455 220.2761 0001794 180.7116 290.3112 14.61104873409999
CLUSTER II-FM7 (SAMBA)  
1 26410U 00041A   26172.60119800  .00004700  00000+0  00000+0 0  9990
2 26410 149.9156  51.6296 9060156 268.8489 359.5243  0.44827446 20328
CLUSTER II-FM8 (TANGO)  
1 26464U 00045B   26168.43823291  .00013202  00000+0  00000+0 0  9992
2 26464 150.1515  52.0898 9060795 269.1034   2.6615  0.44409350 20310
ODIN                    
1 26702U 01007A   26170.57048921  .00168116  00000+0  10417-2 0  9994
2 26702  97.3813 211.6668 0006791 140.5519 219.6242 15.76539587389774
TIMED                   
1 26998U 01055B   26170.55055730  .00000736  00000+0  70366-4 0  9992
2 26998  74.0671 230.2600 0001258 332.0266  28.0850 14.95298316331178
CORIOLIS                
1 27640U 03001A   26170.59299289  .00000066  00000+0  51487-4 0  9992
2 27640  98.7125 177.4411 0013512 201.5448 158.5161 14.19945392214566
SORCE                   
1 27651U 03004A   26170.66327516  .00001927  00000+0  14867-3 0  9997
2 27651  39.9899 247.5513 0016211  68.1416 292.1100 15.03723045272279
MOST                    
1 27843U 03031D   26170.46398126  .00000036  00000+0  36550-4 0  9997
2 27843  98.7044 178.1582 0008791 243.0860 116.9419 14.21322852191033
SCISAT 1                
1 27858U 03036A   26170.31905414  .00000389  00000+0  54332-4 0  9995
2 27858  73.9283 167.1070 0008484 237.0276 123.0085 14.81449324231765
SWIFT                   
1 28485U 04047A   26170.28587369  .00045354  00000+0  37378-3 0  9997
2 28485  20.5512 168.7076 0001425 322.3693  37.6653 15.68495737187190
HINODE (SOLAR-B)        
1 29479U 06041A   26170.56998425  .00000478  00000+0  90631-4 0  9997
2 29479  98.0545 186.6874 0015968 281.5251  78.4161 14.68625622 55220
SHIJIAN-6 02A (SJ-6 02A)
1 29505U 06046A   26170.86205218  .00003809  00000+0  19646-3 0  9993
2 29505  97.6352 211.9488 0004484 119.5380 240.6300 15.16964013 72678
SHIJIAN-6 02B (SJ-6 02B)
1 29506U 06046B   26170.81227080  .00000828  00000+0  68818-4 0  9994
2 29506  97.7153 199.8551 0015415  53.0599 307.2034 15.01381763 71137
FGRST (GLAST)           
1 33053U 08029A   26170.45484761  .00002109  00000+0  71228-4 0  9993
2 33053  25.5801 188.7359 0007978 355.7577   4.2893 15.23953744996180
SDO                     
1 36395U 10005A   26168.41002763 -.00000096  00000+0  00000+0 0  9992
2 36395  34.6527  86.3378 0001734  44.0102 180.8312  1.00269958 60061
CRYOSAT 2               
1 36508U 10013A   26170.83831492  .00000181  00000+0  44223-4 0  9999
2 36508  92.0358 277.9458 0002137  90.8249 269.3203 14.51900049858467
X-SAT                   
1 37389U 11015C   26170.89332743  .00000060  00000+0  42962-4 0  9995
2 37389  98.3515 147.7880 0013714 340.5766  19.4890 14.25206867788066
GCOM-W1 (SHIZUKU)       
1 38337U 12025A   26170.83883991  .00000335  00000+0  84369-4 0  9993
2 38337  98.2020 111.3542 0001775  73.8915 298.1495 14.57126615749429
NUSTAR                  
1 38358U 12031A   26170.91668980  .00011044  00000+0  62726-3 0  9992
2 38358   6.0277  13.6577 0007633 156.5546  38.3568 15.08820242  1300
NEOSSAT                 
1 39089U 13009D   26170.50916984  .00000099  00000+0  48830-4 0  9994
2 39089  98.4178 350.4865 0009978 236.0484 123.9755 14.35827096697075
BRITE-AUSTRIA           
1 39091U 13009F   26170.29768615  .00000120  00000+0  55501-4 0  9997
2 39091  98.3996 349.6811 0009231 229.4697 130.5686 14.36542792697356
IRIS                    
1 39197U 13033A   26170.52181357  .00000738  00000+0  90715-4 0  9990
2 39197  97.9329   9.7915 0023380 313.8607  46.0676 14.85888859700724
HISAKI (SPRINT-A)       
1 39253U 13049A   26170.55932284  .00000098  00000+0  47733-4 0  9997
2 39253  29.7176 207.9524 0136852  36.0838 324.8883 13.55544913631745
CASSIOPE                
1 39265U 13055A   26170.78604605  .00044711 -48271-6  48667-3 0  9991
2 39265  80.9138  63.5653 0291904  53.7394 309.0430 15.25412976668067
STSAT-3                 
1 39422U 13066G   26170.90938142  .00002971  00000+0  22640-3 0  9993
2 39422  97.6229 140.7540 0011031  37.9058 322.2942 15.02770198684615
SWARM B                 
1 39451U 13067A   26170.81798243  .00002818  00000+0  10021-3 0  9992
2 39451  87.7443 341.5169 0003234  84.4369 275.7249 15.28564847683645
